[{"CCSDS_OMM_VERS":"2.0","COMMENT":"GENERATED VIA SPACE-TRACK.ORG API","CREATION_DATE":"2023-06-02T07:36:14","ORIGINATOR":"18 SPCS","OBJECT_NAME":"KSF3-C","OBJECT_ID":"2023-001K","CENTER_NAME":"EARTH","REF_FRAME":"TEME","TIME_SYSTEM":"UTC","MEAN_ELEMENT_THEORY":"SGP4","EPOCH":"2023-06-02T03:08:34.209600","MEAN_MOTION":"15.16538380","ECCENTRICITY":"0.00116520","INCLINATION":"97.4780","RA_OF_ASC_NODE":"212.8854","ARG_OF_PERICENTER":"73.0532","MEAN_ANOMALY":"287.1978","EPHEMERIS_TYPE":"0","CLASSIFICATION_TYPE":"U","NORAD_CAT_ID":"55018","ELEMENT_SET_NO":"999","REV_AT_EPOCH":"2278","BSTAR":"0.00060677000000","MEAN_MOTION_DOT":"0.00011796","MEAN_MOTION_DDOT":"0.0000000000000","SEMIMAJOR_AXIS":"6894.449","PERIOD":"94.953","APOAPSIS":"524.348","PERIAPSIS":"508.281","OBJECT_TYPE":"PAYLOAD","RCS_SIZE":"MEDIUM","COUNTRY_CODE":"LUXE","LAUNCH_DATE":"2023-01-03","SITE":"AFETR","DECAY_DATE":null,"FILE":"3922873","GP_ID":"233005915","TLE_LINE0":"0 KSF3-C","TLE_LINE1":"1 55018U 23001K   23153.13095150  .00011796  00000-0  60677-3 0  9996","TLE_LINE2":"2 55018  97.4780 212.8854 0011652  73.0532 287.1978 15.16538380 22782"},{"CCSDS_OMM_VERS":"2.0","COMMENT":"GENERATED VIA SPACE-TRACK.ORG API","CREATION_DATE":"2023-06-02T14:36:12","ORIGINATOR":"18 SPCS","OBJECT_NAME":"KSF3-C","OBJECT_ID":"2023-001K","CENTER_NAME":"EARTH","REF_FRAME":"TEME","TIME_SYSTEM":"UTC","MEAN_ELEMENT_THEORY":"SGP4","EPOCH":"2023-06-02T09:28:37.402176","MEAN_MOTION":"15.16542903","ECCENTRICITY":"0.00116200","INCLINATION":"97.4780","RA_OF_ASC_NODE":"213.1456","ARG_OF_PERICENTER":"72.1776","MEAN_ANOMALY":"288.0724","EPHEMERIS_TYPE":"0","CLASSIFICATION_TYPE":"U","NORAD_CAT_ID":"55018","ELEMENT_SET_NO":"999","REV_AT_EPOCH":"2282","BSTAR":"0.00055843000000","MEAN_MOTION_DOT":"0.00010851","MEAN_MOTION_DDOT":"0.0000000000000","SEMIMAJOR_AXIS":"6894.435","PERIOD":"94.953","APOAPSIS":"524.312","PERIAPSIS":"508.289","OBJECT_TYPE":"PAYLOAD","RCS_SIZE":"MEDIUM","COUNTRY_CODE":"LUXE","LAUNCH_DATE":"2023-01-03","SITE":"AFETR","DECAY_DATE":null,"FILE":"3923095","GP_ID":"233010451","TLE_LINE0":"0 KSF3-C","TLE_LINE1":"1 55018U 23001K   23153.39487734  .00010851  00000-0  55843-3 0  9997","TLE_LINE2":"2 55018  97.4780 213.1456 0011620  72.1776 288.0724 15.16542903 22829"},{"CCSDS_OMM_VERS":"2.0","COMMENT":"GENERATED VIA SPACE-TRACK.ORG API","CREATION_DATE":"2023-06-02T18:41:25","ORIGINATOR":"18 SPCS","OBJECT_NAME":"KSF3-C","OBJECT_ID":"2023-001K","CENTER_NAME":"EARTH","REF_FRAME":"TEME","TIME_SYSTEM":"UTC","MEAN_ELEMENT_THEORY":"SGP4","EPOCH":"2023-06-02T12:38:38.966496","MEAN_MOTION":"15.16546825","ECCENTRICITY":"0.00116040","INCLINATION":"97.4780","RA_OF_ASC_NODE":"213.2757","ARG_OF_PERICENTER":"71.7552","MEAN_ANOMALY":"288.4943","EPHEMERIS_TYPE":"0","CLASSIFICATION_TYPE":"U","NORAD_CAT_ID":"55018","ELEMENT_SET_NO":"999","REV_AT_EPOCH":"2284","BSTAR":"0.00059713000000","MEAN_MOTION_DOT":"0.00011610","MEAN_MOTION_DDOT":"0.0000000000000","SEMIMAJOR_AXIS":"6894.424","PERIOD":"94.953","APOAPSIS":"524.289","PERIAPSIS":"508.288","OBJECT_TYPE":"PAYLOAD","RCS_SIZE":"MEDIUM","COUNTRY_CODE":"LUXE","LAUNCH_DATE":"2023-01-03","SITE":"AFETR","DECAY_DATE":null,"FILE":"3923342","GP_ID":"233041335","TLE_LINE0":"0 KSF3-C","TLE_LINE1":"1 55018U 23001K   23153.52683989  .00011610  00000-0  59713-3 0  9996","TLE_LINE2":"2 55018  97.4780 213.2757 0011604  71.7552 288.4943 15.16546825 22849"},{"CCSDS_OMM_VERS":"2.0","COMMENT":"GENERATED VIA SPACE-TRACK.ORG API","CREATION_DATE":"2023-06-02T22:36:12","ORIGINATOR":"18 SPCS","OBJECT_NAME":"KSF3-C","OBJECT_ID":"2023-001K","CENTER_NAME":"EARTH","REF_FRAME":"TEME","TIME_SYSTEM":"UTC","MEAN_ELEMENT_THEORY":"SGP4","EPOCH":"2023-06-02T17:23:41.271936","MEAN_MOTION":"15.16551526","ECCENTRICITY":"0.00115890","INCLINATION":"97.4779","RA_OF_ASC_NODE":"213.4709","ARG_OF_PERICENTER":"71.1328","MEAN_ANOMALY":"289.1160","EPHEMERIS_TYPE":"0","CLASSIFICATION_TYPE":"U","NORAD_CAT_ID":"55018","ELEMENT_SET_NO":"999","REV_AT_EPOCH":"2287","BSTAR":"0.00059968000000","MEAN_MOTION_DOT":"0.00011661","MEAN_MOTION_DDOT":"0.0000000000000","SEMIMAJOR_AXIS":"6894.409","PERIOD":"94.952","APOAPSIS":"524.264","PERIAPSIS":"508.284","OBJECT_TYPE":"PAYLOAD","RCS_SIZE":"MEDIUM","COUNTRY_CODE":"LUXE","LAUNCH_DATE":"2023-01-03","SITE":"AFETR","DECAY_DATE":null,"FILE":"3923405","GP_ID":"233045440","TLE_LINE0":"0 KSF3-C","TLE_LINE1":"1 55018U 23001K   23153.72478324  .00011661  00000-0  59968-3 0  9991","TLE_LINE2":"2 55018  97.4779 213.4709 0011589  71.1328 289.1160 15.16551526 22879"},{"CCSDS_OMM_VERS":"2.0","COMMENT":"GENERATED VIA SPACE-TRACK.ORG API","CREATION_DATE":"2023-06-03T02:14:00","ORIGINATOR":"18 SPCS","OBJECT_NAME":"KSF3-C","OBJECT_ID":"2023-001K","CENTER_NAME":"EARTH","REF_FRAME":"TEME","TIME_SYSTEM":"UTC","MEAN_ELEMENT_THEORY":"SGP4","EPOCH":"2023-06-02T22:08:43.528992","MEAN_MOTION":"15.16555720","ECCENTRICITY":"0.00115660","INCLINATION":"97.4779","RA_OF_ASC_NODE":"213.6661","ARG_OF_PERICENTER":"70.5575","MEAN_ANOMALY":"289.6907","EPHEMERIS_TYPE":"0","CLASSIFICATION_TYPE":"U","NORAD_CAT_ID":"55018","ELEMENT_SET_NO":"999","REV_AT_EPOCH":"2290","BSTAR":"0.00060512000000","MEAN_MOTION_DOT":"0.00011769","MEAN_MOTION_DDOT":"0.0000000000000","SEMIMAJOR_AXIS":"6894.397","PERIOD":"94.952","APOAPSIS":"524.236","PERIAPSIS":"508.288","OBJECT_TYPE":"PAYLOAD","RCS_SIZE":"MEDIUM","COUNTRY_CODE":"LUXE","LAUNCH_DATE":"2023-01-03","SITE":"AFETR","DECAY_DATE":null,"FILE":"3923570","GP_ID":"233075174","TLE_LINE0":"0 KSF3-C","TLE_LINE1":"1 55018U 23001K   23153.92272603  .00011769  00000-0  60512-3 0  9991","TLE_LINE2":"2 55018  97.4779 213.6661 0011566  70.5575 289.6907 15.16555720 22908"},{"CCSDS_OMM_VERS":"2.0","COMMENT":"GENERATED VIA SPACE-TRACK.ORG API","CREATION_DATE":"2023-06-03T06:26:12","ORIGINATOR":"18 SPCS","OBJECT_NAME":"KSF3-C","OBJECT_ID":"2023-001K","CENTER_NAME":"EARTH","REF_FRAME":"TEME","TIME_SYSTEM":"UTC","MEAN_ELEMENT_THEORY":"SGP4","EPOCH":"2023-06-03T02:53:45.723840","MEAN_MOTION":"15.16561321","ECCENTRICITY":"0.00115520","INCLINATION":"97.4779","RA_OF_ASC_NODE":"213.8613","ARG_OF_PERICENTER":"69.9209","MEAN_ANOMALY":"290.3266","EPHEMERIS_TYPE":"0","CLASSIFICATION_TYPE":"U","NORAD_CAT_ID":"55018","ELEMENT_SET_NO":"999","REV_AT_EPOCH":"2293","BSTAR":"0.00063497000000","MEAN_MOTION_DOT":"0.00012356","MEAN_MOTION_DDOT":"0.0000000000000","SEMIMAJOR_AXIS":"6894.380","PERIOD":"94.952","APOAPSIS":"524.209","PERIAPSIS":"508.280","OBJECT_TYPE":"PAYLOAD","RCS_SIZE":"MEDIUM","COUNTRY_CODE":"LUXE","LAUNCH_DATE":"2023-01-03","SITE":"AFETR","DECAY_DATE":null,"FILE":"3923613","GP_ID":"233076758","TLE_LINE0":"0 KSF3-C","TLE_LINE1":"1 55018U 23001K   23154.12066810  .00012356  00000-0  63497-3 0  9993","TLE_LINE2":"2 55018  97.4779 213.8613 0011552  69.9209 290.3266 15.16561321 22932"},{"CCSDS_OMM_VERS":"2.0","COMMENT":"GENERATED VIA SPACE-TRACK.ORG API","CREATION_DATE":"2023-06-03T14:36:13","ORIGINATOR":"18 SPCS","OBJECT_NAME":"KSF3-C","OBJECT_ID":"2023-001K","CENTER_NAME":"EARTH","REF_FRAME":"TEME","TIME_SYSTEM":"UTC","MEAN_ELEMENT_THEORY":"SGP4","EPOCH":"2023-06-03T09:13:48.586368","MEAN_MOTION":"15.16565256","ECCENTRICITY":"0.00115330","INCLINATION":"97.4778","RA_OF_ASC_NODE":"214.1215","ARG_OF_PERICENTER":"69.1009","MEAN_ANOMALY":"291.1457","EPHEMERIS_TYPE":"0","CLASSIFICATION_TYPE":"U","NORAD_CAT_ID":"55018","ELEMENT_SET_NO":"999","REV_AT_EPOCH":"2297","BSTAR":"0.00056912000000","MEAN_MOTION_DOT":"0.00011067","MEAN_MOTION_DDOT":"0.0000000000000","SEMIMAJOR_AXIS":"6894.368","PERIOD":"94.951","APOAPSIS":"524.184","PERIAPSIS":"508.281","OBJECT_TYPE":"PAYLOAD","RCS_SIZE":"MEDIUM","COUNTRY_CODE":"LUXE","LAUNCH_DATE":"2023-01-03","SITE":"AFETR","DECAY_DATE":null,"FILE":"3923858","GP_ID":"233082464","TLE_LINE0":"0 KSF3-C","TLE_LINE1":"1 55018U 23001K   23154.38459012  .00011067  00000-0  56912-3 0  9993","TLE_LINE2":"2 55018  97.4778 214.1215 0011533  69.1009 291.1457 15.16565256 22978"},{"CCSDS_OMM_VERS":"2.0","COMMENT":"GENERATED VIA SPACE-TRACK.ORG API","CREATION_DATE":"2023-06-03T20:09:31","ORIGINATOR":"18 SPCS","OBJECT_NAME":"KSF3-C","OBJECT_ID":"2023-001K","CENTER_NAME":"EARTH","REF_FRAME":"TEME","TIME_SYSTEM":"UTC","MEAN_ELEMENT_THEORY":"SGP4","EPOCH":"2023-06-03T13:58:50.693088","MEAN_MOTION":"15.16569140","ECCENTRICITY":"0.00115280","INCLINATION":"97.4778","RA_OF_ASC_NODE":"214.3167","ARG_OF_PERICENTER":"68.4752","MEAN_ANOMALY":"291.7708","EPHEMERIS_TYPE":"0","CLASSIFICATION_TYPE":"U","NORAD_CAT_ID":"55018","ELEMENT_SET_NO":"999","REV_AT_EPOCH":"2300","BSTAR":"0.00054731000000","MEAN_MOTION_DOT":"0.00010641","MEAN_MOTION_DDOT":"0.0000000000000","SEMIMAJOR_AXIS":"6894.356","PERIOD":"94.951","APOAPSIS":"524.169","PERIAPSIS":"508.273","OBJECT_TYPE":"PAYLOAD","RCS_SIZE":"MEDIUM","COUNTRY_CODE":"LUXE","LAUNCH_DATE":"2023-01-03","SITE":"AFETR","DECAY_DATE":null,"FILE":"3924076","GP_ID":"233113326","TLE_LINE0":"0 KSF3-C","TLE_LINE1":"1 55018U 23001K   23154.58253117  .00010641  00000-0  54731-3 0  9997","TLE_LINE2":"2 55018  97.4778 214.3167 0011528  68.4752 291.7708 15.16569140 23003"}]